{
  "type": "FeatureCollection",
  "features": [
    {
      "type": "Feature",
      "properties": {
        "norad_id": 66618,
        "name": "STARLINK-35970",
        "group": "last-30-days",
        "lat": 52.633736041801974,
        "lon": -37.57692026590198,
        "alt_km": 335.5026498814932,
        "timestamp": "2025-12-05T16:54:13.487006+00:00",
        "meta_object_name": "STARLINK-35970",
        "meta_object_id": "2025-271B",
        "meta_epoch": "2025-12-05T04:19:07.911552",
        "meta_mean_motion": 15.76026159,
        "meta_eccentricity": 5.335e-05,
        "meta_inclination": 53.1554,
        "meta_ra_of_asc_node": 224.1366,
        "meta_arg_of_pericenter": 145.1653,
        "meta_mean_anomaly": 214.9403,
        "meta_ephemeris_type": 0,
        "meta_classification_type": "U",
        "meta_norad_cat_id": 66618,
        "meta_element_set_no": 999,
        "meta_rev_at_epoch": 302,
        "meta_bstar": -0.0023737448,
        "meta_mean_motion_dot": -0.00361646,
        "meta_mean_motion_ddot": 0,
        "tle_line1": "1 66618U 25271B   25339.17995268 -.00361646  00000+0 -23737-2 0  9994",
        "tle_line2": "2 66618  53.1554 224.1366 0000533 145.1653 214.9403 15.76026159  3022"
      },
      "geometry": {
        "type": "Point",
        "coordinates": [
          -37.57692026590198,
          52.633736041801974
        ]
      }
    },
    {
      "type": "Feature",
      "properties": {
        "norad_id": 66619,
        "name": "STARLINK-35951",
        "group": "last-30-days",
        "lat": 36.12765428897571,
        "lon": -105.18565175343635,
        "alt_km": 328.93518936371765,
        "timestamp": "2025-12-05T16:54:13.487016+00:00",
        "meta_object_name": "STARLINK-35951",
        "meta_object_id": "2025-271C",
        "meta_epoch": "2025-12-04T22:28:41.509920",
        "meta_mean_motion": 15.79727935,
        "meta_eccentricity": 1.39e-05,
        "meta_inclination": 53.1563,
        "meta_ra_of_asc_node": 225.4695,
        "meta_arg_of_pericenter": 34.7805,
        "meta_mean_anomaly": 325.3226,
        "meta_ephemeris_type": 0,
        "meta_classification_type": "U",
        "meta_norad_cat_id": 66619,
        "meta_element_set_no": 999,
        "meta_rev_at_epoch": 298,
        "meta_bstar": -0.0031095,
        "meta_mean_motion_dot": -0.00547317,
        "meta_mean_motion_ddot": 0,
        "tle_line1": "1 66619U 25271C   25338.93659155 -.00547317  00000+0 -31095-2 0  9997",
        "tle_line2": "2 66619  53.1563 225.4695 0000139  34.7805 325.3226 15.79727935  2983"
      },
      "geometry": {
        "type": "Point",
        "coordinates": [
          -105.18565175343635,
          36.12765428897571
        ]
      }
    },
    {
      "type": "Feature",
      "properties": {
        "norad_id": 66620,
        "name": "STARLINK-35936",
        "group": "last-30-days",
        "lat": 30.69582471590622,
        "lon": -111.9207451053416,
        "alt_km": 331.15816742500647,
        "timestamp": "2025-12-05T16:54:13.487025+00:00",
        "meta_object_name": "STARLINK-35936",
        "meta_object_id": "2025-271D",
        "meta_epoch": "2025-12-05T04:34:54.500448",
        "meta_mean_motion": 15.78982878,
        "meta_eccentricity": 4.359e-05,
        "meta_inclination": 53.1557,
        "meta_ra_of_asc_node": 224.2119,
        "meta_arg_of_pericenter": 299.2433,
        "meta_mean_anomaly": 60.8545,
        "meta_ephemeris_type": 0,
        "meta_classification_type": "U",
        "meta_norad_cat_id": 66620,
        "meta_element_set_no": 999,
        "meta_rev_at_epoch": 302,
        "meta_bstar": -0.0029583165,
        "meta_mean_motion_dot": -0.00505786,
        "meta_mean_motion_ddot": 0,
        "tle_line1": "1 66620U 25271D   25339.19090857 -.00505786  00000+0 -29583-2 0  9999",
        "tle_line2": "2 66620  53.1557 224.2119 0000435 299.2433  60.8545 15.78982878  3029"
      },
      "geometry": {
        "type": "Point",
        "coordinates": [
          -111.9207451053416,
          30.69582471590622
        ]
      }
    },
    {
      "type": "Feature",
      "properties": {
        "norad_id": 66621,
        "name": "STARLINK-35847",
        "group": "last-30-days",
        "lat": 47.257758604344914,
        "lon": -12.740771477243612,
        "alt_km": 329.6868523404646,
        "timestamp": "2025-12-05T16:54:13.487034+00:00",
        "meta_object_name": "STARLINK-35847",
        "meta_object_id": "2025-271E",
        "meta_epoch": "2025-12-04T05:29:14.400096",
        "meta_mean_motion": 15.80119551,
        "meta_eccentricity": 8.3e-05,
        "meta_inclination": 53.1563,
        "meta_ra_of_asc_node": 228.8686,
        "meta_arg_of_pericenter": 162.0892,
        "meta_mean_anomaly": 198.016,
        "meta_ephemeris_type": 0,
        "meta_classification_type": "U",
        "meta_norad_cat_id": 66621,
        "meta_element_set_no": 999,
        "meta_rev_at_epoch": 287,
        "meta_bstar": -0.0041389,
        "meta_mean_motion_dot": -0.00726477,
        "meta_mean_motion_ddot": 0,
        "tle_line1": "1 66621U 25271E   25338.22863889 -.00726477  00000+0 -41389-2 0  9996",
        "tle_line2": "2 66621  53.1563 228.8686 0000830 162.0892 198.0160 15.80119551  2873"
      },
      "geometry": {
        "type": "Point",
        "coordinates": [
          -12.740771477243612,
          47.257758604344914
        ]
      }
    },
    {
      "type": "Feature",
      "properties": {
        "norad_id": 66622,
        "name": "STARLINK-35950",
        "group": "last-30-days",
        "lat": 37.7881239128744,
        "lon": -102.82712452500411,
        "alt_km": 330.3895493903219,
        "timestamp": "2025-12-05T16:54:13.487043+00:00",
        "meta_object_name": "STARLINK-35950",
        "meta_object_id": "2025-271F",
        "meta_epoch": "2025-12-05T04:32:11.522400",
        "meta_mean_motion": 15.78888049,
        "meta_eccentricity": 8.156e-05,
        "meta_inclination": 53.1561,
        "meta_ra_of_asc_node": 224.1992,
        "meta_arg_of_pericenter": 24.5473,
        "meta_mean_anomaly": 335.5588,
        "meta_ephemeris_type": 0,
        "meta_classification_type": "U",
        "meta_norad_cat_id": 66622,
        "meta_element_set_no": 999,
        "meta_rev_at_epoch": 302,
        "meta_bstar": -0.0043392119,
        "meta_mean_motion_dot": -0.00720349,
        "meta_mean_motion_ddot": 0,
        "tle_line1": "1 66622U 25271F   25339.18902225 -.00720349  00000+0 -43392-2 0  9999",
        "tle_line2": "2 66622  53.1561 224.1992 0000815  24.5473 335.5588 15.78888049  3023"
      },
      "geometry": {
        "type": "Point",
        "coordinates": [
          -102.82712452500411,
          37.7881239128744
        ]
      }
    },
    {
      "type": "Feature",
      "properties": {
        "norad_id": 66623,
        "name": "STARLINK-35920",
        "group": "last-30-days",
        "lat": 44.16915283746397,
        "lon": -91.64707795997103,
        "alt_km": 322.0338873632427,
        "timestamp": "2025-12-05T16:54:13.487056+00:00",
        "meta_object_name": "STARLINK-35920",
        "meta_object_id": "2025-271G",
        "meta_epoch": "2025-12-04T10:18:25.884864",
        "meta_mean_motion": 15.81474448,
        "meta_eccentricity": 0.000142,
        "meta_inclination": 53.1567,
        "meta_ra_of_asc_node": 227.9949,
        "meta_arg_of_pericenter": 2.2541,
        "meta_mean_anomaly": 357.8488,
        "meta_ephemeris_type": 0,
        "meta_classification_type": "U",
        "meta_norad_cat_id": 66623,
        "meta_element_set_no": 999,
        "meta_rev_at_epoch": 290,
        "meta_bstar": -0.001618,
        "meta_mean_motion_dot": -0.00317341,
        "meta_mean_motion_ddot": 0,
        "tle_line1": "1 66623U 25271G   25338.42946626 -.00317341  00000+0 -16180-2 0  9998",
        "tle_line2": "2 66623  53.1567 227.9949 0001420   2.2541 357.8488 15.81474448  2905"
      },
      "geometry": {
        "type": "Point",
        "coordinates": [
          -91.64707795997103,
          44.16915283746397
        ]
      }
    },
    {
      "type": "Feature",
      "properties": {
        "norad_id": 66624,
        "name": "STARLINK-35927",
        "group": "last-30-days",
        "lat": 39.2073706376175,
        "lon": -100.66569195773833,
        "alt_km": 332.0368077077819,
        "timestamp": "2025-12-05T16:54:13.487066+00:00",
        "meta_object_name": "STARLINK-35927",
        "meta_object_id": "2025-271H",
        "meta_epoch": "2025-12-05T04:31:39.458496",
        "meta_mean_motion": 15.78996813,
        "meta_eccentricity": 0.00022332,
        "meta_inclination": 53.1562,
        "meta_ra_of_asc_node": 224.1974,
        "meta_arg_of_pericenter": 213.08,
        "meta_mean_anomaly": 147.0082,
        "meta_ephemeris_type": 0,
        "meta_classification_type": "U",
        "meta_norad_cat_id": 66624,
        "meta_element_set_no": 999,
        "meta_rev_at_epoch": 302,
        "meta_bstar": -0.0047492104,
        "meta_mean_motion_dot": -0.00786598,
        "meta_mean_motion_ddot": 0,
        "tle_line1": "1 66624U 25271H   25339.18865114 -.00786598  00000+0 -47492-2 0  9999",
        "tle_line2": "2 66624  53.1562 224.1974 0002233 213.0800 147.0082 15.78996813  3025"
      },
      "geometry": {
        "type": "Point",
        "coordinates": [
          -100.66569195773833,
          39.2073706376175
        ]
      }
    }
  ]
}